IRIDIUM 171             
1 43929U 19002H   25361.74008225  .00000310  00000+0  10353-3 0  9992
2 43929  86.3965  65.5330 0002455  94.9241 265.2236 14.34221085364383
IRIDIUM 170             
1 43930U 19002J   25361.61465397  .00001134  00000+0  17592-3 0  9994
2 43930  86.6078  65.2943 0002288  91.2627 268.8852 14.72269492374012
IRIDIUM 167             
1 43931U 19002K   25361.73373898 -.00000004  00000+0 -85400-5 0  9994
2 43931  86.3952  65.2688 0002526  98.3101 261.8381 14.34217431364380
IRIDIUM 181             
1 56726U 23068S   25361.79352760  .00000245  00000+0  66858-4 0  9998
2 56726  86.4525 128.4397 0002123  82.8354 277.3088 14.43311191137712
IRIDIUM 177             
1 56727U 23068T   25361.61449554  .00001477  00000+0  19078-3 0  9997
2 56727  86.1953  50.2643 0002111  87.0365 273.1097 14.80245910140980
IRIDIUM 174             
1 56728U 23068U   25361.67028542  .00001193  00000+0  18527-3 0  9997
2 56728  86.6085  65.4011 0002050  92.4463 267.6988 14.72264423140786
IRIDIUM 178             
1 56729U 23068V   25361.67118544  .00001876  00000+0  24335-3 0  9992
2 56729  86.6542  97.0615 0002478  90.0606 270.0900 14.80246240140994
IRIDIUM 179             
1 56730U 23068W   25361.73342416  .00001810  00000+0  23479-3 0  9994
2 56730  86.6787 105.5044 0002412  89.7411 270.4086 14.80240226141005
